ONEWEB-0716             
1 55177U 23004AP  25235.22349084  .00000054  00000+0  10602-3 0  9993
2 55177  87.9024  65.1655 0001820  82.4504 277.6834 13.17649177128340
ONEWEB-0717             
1 55178U 23004AQ  25235.05472789 -.00000229  00000+0 -62191-3 0  9990
2 55178  87.9029  65.1598 0002032 111.4298 248.7050 13.17648782128374
ONEWEB-0719             
1 55179U 23004AR  25235.21675247  .00000003  00000+0 -25266-4 0  9995
2 55179  87.9032  65.1104 0001948  84.9313 275.2041 13.17649884128345
ONEWEB-0530             
1 55796U 23029A   25232.79053584 -.00000008  00000+0 -51758-4 0  9992
2 55796  87.9302 334.3511 0002337 108.5080 251.6307 13.20770650121492
ONEWEB-0534             
1 55797U 23029B   25235.27789660  .00000021  00000+0  18987-4 0  9990
2 55797  87.9292 333.8630 0001954  97.0055 263.1301 13.20770853121829
ONEWEB-0556             
1 55798U 23029C   25235.28419997  .00000040  00000+0  66200-4 0  9997
2 55798  87.9299 333.8558 0002653  91.6708 268.4730 13.20769774121822
ONEWEB-0562             
1 55799U 23029D   25235.27157541  .00000079  00000+0  16292-3 0  9998
2 55799  87.9289 333.8476 0002866 104.2555 255.8897 13.20773213121825
ONEWEB-0563             
1 55800U 23029E   25235.26525921  .00000019  00000+0  15736-4 0  9998
2 55800  87.9300 333.8680 0002002  92.6488 267.4874 13.20773511121810
